[{"OBJECT_NAME":"STARLINK-32561","OBJECT_ID":"2024-213U","EPOCH":"2026-03-09T13:08:46.977216","MEAN_MOTION":15.30190093,"ECCENTRICITY":9.245e-5,"INCLINATION":53.159,"RA_OF_ASC_NODE":168.7454,"ARG_OF_PERICENTER":85.2752,"MEAN_ANOMALY":274.8354,"EPHEMERIS_TYPE":0,"CLASSIFICATION_TYPE":"U","NORAD_CAT_ID":62026,"ELEMENT_SET_NO":999,"REV_AT_EPOCH":7313,"BSTAR":0.00096316878,"MEAN_MOTION_DOT":0.00028267,"MEAN_MOTION_DDOT":0},{"OBJECT_NAME":"SCS-01 J","OBJECT_ID":"2025-100J","EPOCH":"2026-03-09T22:31:25.904064","MEAN_MOTION":15.31338011,"ECCENTRICITY":0.00063909,"INCLINATION":97.3693,"RA_OF_ASC_NODE":145.4824,"ARG_OF_PERICENTER":272.025,"MEAN_ANOMALY":88.026,"EPHEMERIS_TYPE":0,"CLASSIFICATION_TYPE":"U","NORAD_CAT_ID":63990,"ELEMENT_SET_NO":999,"REV_AT_EPOCH":4563,"BSTAR":0.0011832888,"MEAN_MOTION_DOT":0.00035886,"MEAN_MOTION_DDOT":0}]
